QIANFAN-73              
1 63159U 25046A   25303.27746481  .00000052  00000+0  62312-4 0  9997
2 63159  88.9768 324.5257 0013155 246.4278 113.5492 13.50972104 41549
QIANFAN-74              
1 63160U 25046B   25303.26098172  .00000037  00000+0  37939-4 0  9995
2 63160  88.9768 324.4159 0002089  94.3434 265.7955 13.50973939 41607
QIANFAN-75              
1 63161U 25046C   25303.24847921  .00000118  00000+0  16432-3 0  9992
2 63161  88.9770 324.6501 0014240 250.1879 109.7737 13.50983374 41475
QIANFAN-76              
1 63162U 25046D   25303.24453878 -.00000112  00000+0 -19149-3 0  9991
2 63162  88.9765 324.6313 0011844 250.5204 109.4668 13.50971038 41489
QIANFAN-77              
1 63163U 25046E   25303.25147228  .00000164  00000+0  10963-3 0  9992
2 63163  88.9768 322.9947 0013680 209.0652 150.9764 13.96077987 42381
QIANFAN-78              
1 63164U 25046F   25303.21163089  .00000010  00000+0 -32409-5 0  9994
2 63164  88.9764 324.4990 0013199 253.4681 106.5020 13.50974091 41555
QIANFAN-79              
1 63165U 25046G   25303.24031875  .00000040  00000+0  43955-4 0  9994
2 63165  88.9773 324.6022 0012863 251.2034 108.7722 13.50973705 41508
QIANFAN-80              
1 63166U 25046H   25303.25687894  .00000082  00000+0  10820-3 0  9994
2 63166  88.9770 324.3083 0011780 256.0406 103.9435 13.50975360 41667
